KUIPER-00167            
1 65780U 25217U   25352.66667824 -.00005619  00000+0 -64436-3 0  9993
2 65780  51.8990  43.8834 0009861   4.8391 290.7854 14.83777844  1301
KUIPER-00168            
1 65781U 25217V   25352.39857618  .00032977  00000+0  87970-3 0  9999
2 65781  51.8736  36.4303 0001092  22.2639 337.8395 15.37835496 12927
KUIPER-00169            
1 65782U 25217W   25352.66667824  .00016534  00000+0  66102-3 0  9993
2 65782  51.8782  36.1174 0005230  21.4361 277.2985 15.25217477  4263
KUIPER-00170            
1 65783U 25217X   25352.66667824 -.01055824  00000+0 -69510-1 0  9996
2 65783  51.8971  38.7073 0007805  23.7353  89.5821 15.09827504  4988
KUIPER-00171            
1 65784U 25217Y   25352.58791086  .00171695  00000+0  13267-2 0  9997
2 65784  51.8570  26.4843 0009985  38.6018 321.5695 15.70790573 13078
KUIPER-00172            
1 65785U 25217Z   25352.66667824 -.01274110  00000+0 -49568-1 0  9990
2 65785  51.8762  35.4797 0005241  31.2221 183.5418 15.28403435  5369
KUIPER-00173            
1 65786U 25217AA  25352.66667824  .00004299  00000+0  19423-3 0  9996
2 65786  51.8776  36.2828 0002919 340.1526 187.3763 15.23002652  5555
KUIPER-00174            
1 65787U 25217AB  25352.66667824 -.01479686  00000+0 -45711-1 0  9993
2 65787  51.8739  35.2050 0002212 313.2593  50.5093 15.36186100  5824
